NORAD_CAT_ID,OBJECT_NAME,OBJECT_TYPE,EPOCH,MEAN_MOTION,ECCENTRICITY,INCLINATION,RA_OF_ASC_NODE,ARG_OF_PERICENTER,MEAN_ANOMALY,BSTAR,MEAN_MOTION_DOT,MEAN_MOTION_DDOT,TLE_LINE0,TLE_LINE1,TLE_LINE2,SEMIMAJOR_AXIS,PERIOD,APOGEE,PERIGEE,DECAYED
52585.0,STARLINK-3906,PAYLOAD,2022-10-20 10:11:34,15.088499,0.0001909,53.2172,268.932,43.0003,317.1138,3.5026e-05,2.69e-06,0.0,0 STARLINK-3906,1 52585U 22051BB  22293.42470230  .00000269  00000-0  35026-4 0  9992,2 52585  53.2172 268.9320 0001909  43.0003 317.1138 15.08849900 24954,6917.85,95.437,541.036,538.395,0.0
52585.0,STARLINK-3906,PAYLOAD,2022-10-20 14:57:43,15.08853351,0.0001889999999999,53.2172,268.0398,42.1993,317.9144,7.6022e-05,9.22e-06,0.0,0 STARLINK-3906,1 52585U 22051BB  22293.62341894  .00000922  00000-0  76022-4 0  9994,2 52585  53.2172 268.0398 0001890  42.1993 317.9144 15.08853351 24980,6917.84,95.437,541.012,538.3969999999998,0.0
52585.0,STARLINK-3906,PAYLOAD,2022-10-21 05:16:11,15.08846456,0.0001831,53.2171,265.363,41.9114,318.2018,8.9193e-05,1.132e-05,0.0,0 STARLINK-3906,1 52585U 22051BB  22294.21957876  .00001132  00000-0  89193-4 0  9990,2 52585  53.2171 265.3630 0001831  41.9114 318.2018 15.08846456 25146,6917.861,95.437,540.992,538.4590000000002,0.0
52585.0,STARLINK-3906,PAYLOAD,2022-10-21 10:02:21,15.08844727,0.0001857,53.2171,264.471,41.0592,319.0540000000001,5.290300000000001e-05,5.54e-06,0.0,0 STARLINK-3906,1 52585U 22051BB  22294.41829884  .00000554  00000-0  52903-4 0  9995,2 52585  53.2171 264.4710 0001857  41.0592 319.0540 15.08844727 25108,6917.866,95.437,541.016,538.446,0.0
52585.0,STARLINK-3906,PAYLOAD,2022-10-22 09:53:07,15.08849075,0.0001831,53.2183,260.0103,45.827,314.2873,2.9912e-05,1.88e-06,0.0,0 STARLINK-3906,1 52585U 22051BB  22295.41189597  .00000188  00000-0  29912-4 0  9993,2 52585  53.2183 260.0103 0001831  45.8270 314.2873 15.08849075 25327,6917.853,95.437,540.984,538.451,0.0
52585.0,STARLINK-3906,PAYLOAD,2022-10-23 09:43:54,15.08853432,0.0002020999999999,53.2175,255.5501,46.2133,313.9026,0.00020435,2.967e-05,0.0,0 STARLINK-3906,1 52585U 22051BB  22296.40548998  .00002967  00000-0  20435-3 0  9994,2 52585  53.2175 255.5501 0002021  46.2133 313.9026 15.08853432 25401,6917.839,95.437,541.102,538.306,0.0
52585.0,STARLINK-3906,PAYLOAD,2022-10-23 14:30:03,15.08854507,0.0002088,53.2176,254.658,44.7293,315.3867,0.00025782,3.819e-05,0.0,0 STARLINK-3906,1 52585U 22051BB  22296.60420883  .00003819  00000-0  25782-3 0  9995,2 52585  53.2176 254.6580 0002088  44.7293 315.3867 15.08854507 25506,6917.8359999999975,95.437,541.145,538.257,0.0
52585.0,STARLINK-3906,PAYLOAD,2022-10-24 06:23:55,15.08844519,0.0002076,53.2177,251.6855,43.0593,317.0561,0.00014486,2.018e-05,0.0,0 STARLINK-3906,1 52585U 22051BB  22297.26661114  .00002018  00000-0  14486-3 0  9991,2 52585  53.2177 251.6855 0002076  43.0593 317.0561 15.08844519 25604,6917.8669999999975,95.437,541.168,538.295,0.0
52585.0,STARLINK-3906,PAYLOAD,2022-10-24 20:42:24,15.08817284,0.0002130999999999,53.2173,249.0085,50.5351,309.5829,-0.00034407,-5.757e-05,0.0,0 STARLINK-3906,1 52585U 22051BB  22297.86278624 -.00005757  00000-0 -34407-3 0  9997,2 52585  53.2173 249.0085 0002131  50.5351 309.5829 15.08817284 25694,6917.95,95.439,541.289,538.341,0.0
52585.0,STARLINK-3906,PAYLOAD,2022-10-25 03:03:57,15.08827794,0.000185,53.2173,247.819,40.5618,319.5512,-0.00012851,-2.332e-05,0.0,0 STARLINK-3906,1 52585U 22051BB  22298.12774335 -.00002332  00000-0 -12851-3 0  9992,2 52585  53.2173 247.8190 0001850  40.5618 319.5512 15.08827794 25731,6917.918000000002,95.438,541.063,538.503,0.0
52585.0,STARLINK-3906,PAYLOAD,2022-10-25 07:50:06,15.08833622,0.0001916999999999,53.2176,246.9269,43.2632,316.851,-2.5254e-05,-6.900000000000003e-06,0.0,0 STARLINK-3906,1 52585U 22051BB  22298.32646466 -.00000690  00000-0 -25254-4 0  9994,2 52585  53.2176 246.9269 0001917  43.2632 316.8510 15.08833622 25691,6917.9,95.438,541.091,538.439,0.0
52585.0,STARLINK-3906,PAYLOAD,2022-10-26 04:30:07,15.08845685,0.0001778,53.2173,243.0608,43.1565,316.9567,0.00039215,5.959e-05,0.0,0 STARLINK-3906,1 52585U 22051BB  22299.18758434  .00005959  00000-0  39215-3 0  9990,2 52585  53.2173 243.0608 0001778  43.1565 316.9567 15.08845685 25899,6917.863,95.437,540.9580000000002,538.498,0.0
52585.0,STARLINK-3906,PAYLOAD,2022-10-26 07:40:53,15.08848071,0.0001809,53.2172,242.466,46.1927,313.9215,0.00034816,5.258e-05,0.0,0 STARLINK-3906,1 52585U 22051BB  22299.32006378  .00005258  00000-0  34816-3 0  9993,2 52585  53.2172 242.4660 0001809  46.1927 313.9215 15.08848071 25843,6917.856,95.437,540.972,538.469,0.0
52585.0,STARLINK-3906,PAYLOAD,2022-10-26 20:23:58,15.08845,0.0001911,53.2174,240.0873,43.88,316.2344,0.00040308,6.134e-05,0.0,0 STARLINK-3906,1 52585U 22051BB  22299.84998754  .00006134  00000-0  40308-3 0  9995,2 52585  53.2174 240.0873 0001911  43.8800 316.2344 15.08845000 25920,6917.865,95.437,541.052,538.408,0.0
52585.0,STARLINK-3906,PAYLOAD,2022-10-27 07:31:40,15.08837113,0.000174,53.2181,238.0064,39.2114,320.9004,0.00014686,2.05e-05,0.0,0 STARLINK-3906,1 52585U 22051BB  22300.31366793  .00002050  00000-0  14686-3 0  9995,2 52585  53.2181 238.0064 0001740  39.2114 320.9004 15.08837113 26061,6917.889,95.438,540.9580000000002,538.5509999999998,0.0
52585.0,STARLINK-3906,PAYLOAD,2022-10-28 02:36:17,15.08849605,0.0001847,53.218,234.4381,40.3239,319.789,6.1429e-05,6.900000000000003e-06,0.0,0 STARLINK-3906,1 52585U 22051BB  22301.10854142  .00000690  00000-0  61429-4 0  9999,2 52585  53.2180 234.4381 0001847  40.3239 319.7890 15.08849605 26182,6917.851,95.437,540.994,538.438,0.0
52585.0,STARLINK-3906,PAYLOAD,2022-10-28 12:08:36,15.08849625,0.0001886999999999,53.2174,232.6539,40.3192,319.7939,8.983e-05,1.142e-05,0.0,0 STARLINK-3906,1 52585U 22051BB  22301.50597932  .00001142  00000-0  89830-4 0  9993,2 52585  53.2174 232.6539 0001887  40.3192 319.7939 15.08849625 26177,6917.851,95.437,541.021,538.411,0.0
52585.0,STARLINK-3906,PAYLOAD,2022-10-28 20:05:32,15.08849384,0.0001889999999999,53.2176,231.1674,41.0884,319.025,0.00014669,2.048e-05,0.0,0 STARLINK-3906,1 52585U 22051BB  22301.83717858  .00002048  00000-0  14669-3 0  9993,2 52585  53.2176 231.1674 0001890  41.0884 319.0250 15.08849384 26220,6917.852,95.437,541.024,538.409,0.0
52585.0,STARLINK-3906,PAYLOAD,2022-10-29 02:27:10,15.0874133,0.0002473,53.2175,229.9783,46.7938,313.326,0.0031678,0.00050353,0.0,0 STARLINK-3906,1 52585U 22051BB  22302.10220378  .00050353  00000-0  31678-2 0  9990,2 52585  53.2175 229.9783 0002473  46.7938 313.3260 15.08741330 26337,6918.182,95.444,541.758,538.336,0.0
52585.0,STARLINK-3906,PAYLOAD,2022-10-29 04:02:27,15.08848395,0.0001871,53.2175,229.6804,41.3892,318.7242,-2.3449e-05,-6.61e-06,0.0,0 STARLINK-3906,1 52585U 22051BB  22302.16837757 -.00000661  00000-0 -23449-4 0  9999,2 52585  53.2175 229.6804 0001871  41.3892 318.7242 15.08848395 26270,6917.855,95.437,541.014,538.425,0.0
52585.0,STARLINK-3906,PAYLOAD,2022-10-29 23:07:05,15.08843872,0.0001859,53.2183,226.1093,38.8221,321.2905,0.00034152,5.152e-05,0.0,0 STARLINK-3906,1 52585U 22051BB  22302.96325655  .00005152  00000-0  34152-3 0  9996,2 52585  53.2183 226.1093 0001859  38.8221 321.2905 15.08843872 26465,6917.869000000002,95.437,541.02,538.448,0.0
52585.0,STARLINK-3906,PAYLOAD,2022-10-30 02:17:51,15.08847955,0.0001825,53.217,225.5179,43.1144,316.9991,7.6607e-05,9.32e-06,0.0,0 STARLINK-3906,1 52585U 22051BB  22303.09573388  .00000932  00000-0  76607-4 0  9992,2 52585  53.2170 225.5179 0001825  43.1144 316.9991 15.08847955 26412,6917.856,95.437,540.984,538.4590000000002,0.0
52585.0,STARLINK-3906,PAYLOAD,2022-10-30 19:47:06,15.0883634,0.0001757,53.2187,222.2471,38.6934,321.4184,-3.8098e-05,-8.94e-06,0.0,0 STARLINK-3906,1 52585U 22051BB  22303.82438616 -.00000894  00000-0 -38098-4 0  9998,2 52585  53.2187 222.2471 0001757  38.6934 321.4184 15.08836340 26522,6917.892,95.438,540.972,538.5409999999998,0.0
52585.0,STARLINK-3906,PAYLOAD,2022-10-31 02:08:39,15.08833539,0.0001843,53.2184,221.0575,44.9954,315.1188,-1.1544000000000003e-05,-4.72e-06,0.0,0 STARLINK-3906,1 52585U 22051BB  22304.08934820 -.00000472  00000-0 -11544-4 0  9994,2 52585  53.2184 221.0575 0001843  44.9954 315.1188 15.08833539 26564,6917.9,95.438,541.04,538.49,0.0
52585.0,STARLINK-3906,PAYLOAD,2022-10-31 19:37:53,15.08842052,0.0001865,53.2184,217.7863,42.3245,317.7891,0.00010013,1.306e-05,0.0,0 STARLINK-3906,1 52585U 22051BB  22304.81798119  .00001306  00000-0  10013-3 0  9998,2 52585  53.2184 217.7863 0001865  42.3245 317.7891 15.08842052 26744,6917.874,95.437,541.029,538.4490000000002,0.0
52585.0,STARLINK-3906,PAYLOAD,2022-11-01 01:59:26,15.08842917,0.0001945,53.2173,216.5966,45.8035,314.3117,0.00018789,2.704e-05,0.0,0 STARLINK-3906,1 52585U 22051BB  22305.08294098  .00002704  00000-0  18789-3 0  9996,2 52585  53.2173 216.5966 0001945  45.8035 314.3117 15.08842917 26718,6917.871,95.437,541.082,538.391,0.0
52585.0,STARLINK-3906,PAYLOAD,2022-11-01 13:07:08,15.08840376,0.0002036,53.2169,214.5165,45.9432,314.1728,0.00021982,3.212e-05,0.0,0 STARLINK-3906,1 52585U 22051BB  22305.54662406  .00003212  00000-0  21982-3 0  9993,2 52585  53.2169 214.5165 0002036  45.9432 314.1728 15.08840376 26786,6917.879,95.438,541.153,538.336,0.0
52585.0,STARLINK-3906,PAYLOAD,2022-11-02 00:14:50,15.08840167,0.000207,53.2168,212.4346,40.983,319.1317,0.000206,2.992e-05,0.0,0 STARLINK-3906,1 52585U 22051BB  22306.01030527  .00002992  00000-0  20600-3 0  9999,2 52585  53.2168 212.4346 0002070  40.9830 319.1317 15.08840167 26921,6917.88,95.438,541.177,538.313,0.0
52585.0,STARLINK-3906,PAYLOAD,2022-11-02 11:22:32,15.08842571,0.0001873,53.2177,210.3533,41.1306,318.9827,0.00012052,1.631e-05,0.0,0 STARLINK-3906,1 52585U 22051BB  22306.47398380  .00001631  00000-0  12052-3 0  9994,2 52585  53.2177 210.3533 0001873  41.1306 318.9827 15.08842571 26921,6917.873000000001,95.437,541.033,538.442,0.0
